STARLINK-4776           
1 53837U 22114V   26068.87612274 -.00002766  00000+0 -15585-3 0  9994
2 53837  53.2184 302.9943 0001436  88.7474 271.3683 15.08823289192865
STARLINK-5895           
1 55964U 23037BC  26068.93316413  .00010921  00000+0  72850-3 0  9993
2 55964  69.9972 260.0280 0004986 264.4993  95.5602 15.07243555164606
